TIANMU-1 20             
1 58661U 23208B   26170.60959218  .00006527  00000+0  20851-3 0  9995
2 58661  97.4450 287.5596 0005833 323.8664  36.2183 15.32794209137792
TIANMU-1 21             
1 58662U 23208C   26170.59428560  .00007695  00000+0  22814-3 0  9993
2 58662  97.4510 290.2351 0005841 313.2572  46.8183 15.35111936137936
TIANMU-1 22             
1 58663U 23208D   26170.55625487  .00006264  00000+0  21118-3 0  9994
2 58663  97.4505 286.8022 0002978 355.0950   5.0262 15.31085508137698
TIANMU-1 15             
1 58700U 24004A   26170.65424244  .00004396  00000+0  16842-3 0  9992
2 58700  97.4671 356.8448 0006455 353.5004   6.6150 15.27043822136152
TIANMU-1 16             
1 58701U 24004B   26170.64392365  .00004374  00000+0  16902-3 0  9993
2 58701  97.4618 356.0684 0005565 359.2119   0.9110 15.26768802136153
TIANMU-1 17             
1 58702U 24004C   26170.62937861  .00004312  00000+0  16667-3 0  9998
2 58702  97.4646 356.5398 0005280   6.0682 354.0619 15.26767878136146
TIANMU-1 18             
1 58703U 24004D   26170.60535815  .00004385  00000+0  16818-3 0  9998
2 58703  97.4663 356.7728 0003792   7.5685 352.5611 15.27025059136144
INSAT-3DS               
1 58990U 24033A   26170.55248884 -.00000162  00000+0  00000+0 0  9991
2 58990   0.0466 107.0040 0001125 329.3506 112.4124  1.00271101 47096
METEOR-M2 4             
1 59051U 24039A   26170.64540469  .00000002  00000+0  20611-4 0  9997
2 59051  98.7011 129.9125 0007422 154.1905 205.9644 14.22429736119615
GOES 19                 
1 60133U 24119A   26170.37908251 -.00000258  00000+0  00000+0 0  9995
2 60133   0.0249 218.9773 0002306 265.9040 204.0106  1.00309682  6989
MTG-S1                  
1 64723U 25143A   26169.39513119 -.00000028  00000+0  00000+0 0  9992
2 64723   0.6020 339.2639 0003993  77.2395 348.9838  1.00323776  3436
METOP-SGA1              
1 65159U 25172A   26167.15332899  .00000049  00000+0  42000-4 0  9997
2 65159  98.6644 226.8998 0000902  93.8213 266.3067 14.21509720 43644
FENGYUN 3H              
1 65815U 25219A   26170.57784054  .00000032  00000+0  35708-4 0  9991
2 65815  98.6767 111.3005 0001590  75.4716 284.6637 14.19920716 37721
