OBJECT_NAME,OBJECT_ID,EPOCH,MEAN_MOTION,ECCENTRICITY,INCLINATION,RA_OF_ASC_NODE,ARG_OF_PERICENTER,MEAN_ANOMALY,EPHEMERIS_TYPE,CLASSIFICATION_TYPE,NORAD_CAT_ID,ELEMENT_SET_NO,REV_AT_EPOCH,BSTAR,MEAN_MOTION_DOT,MEAN_MOTION_DDOT
TIANMU-1 20,2023-208B,2026-06-19T14:37:48.764352,15.32794209,.00058332,97.4450,287.5596,323.8664,36.2183,0,U,58661,999,13779,.20850997E-3,.6527E-4,0
TIANMU-1 21,2023-208C,2026-06-19T14:15:46.275840,15.35111936,.00058413,97.4510,290.2351,313.2572,46.8183,0,U,58662,999,13793,.22814401E-3,.7695E-4,0
TIANMU-1 22,2023-208D,2026-06-19T13:21:00.420768,15.31085508,.00029788,97.4505,286.8022,355.0950,5.0262,0,U,58663,999,13769,.21118221E-3,.6264E-4,0
TIANMU-1 15,2024-004A,2026-06-19T15:42:06.546816,15.27043822,.00064554,97.4671,356.8448,353.5004,6.6150,0,U,58700,999,13615,.16841855E-3,.4396E-4,0
TIANMU-1 16,2024-004B,2026-06-19T15:27:15.003360,15.26768802,.00055652,97.4618,356.0684,359.2119,0.9110,0,U,58701,999,13615,.16901866E-3,.4374E-4,0
TIANMU-1 17,2024-004C,2026-06-19T15:06:18.311904,15.26767878,.00052806,97.4646,356.5398,6.0682,354.0619,0,U,58702,999,13614,.16667457E-3,.4312E-4,0
TIANMU-1 18,2024-004D,2026-06-19T14:31:42.944160,15.27025059,.00037924,97.4663,356.7728,7.5685,352.5611,0,U,58703,999,13614,.16818118E-3,.4385E-4,0
INSAT-3DS,2024-033A,2026-06-19T13:15:35.035776,1.00271101,.00011253,0.0466,107.0040,329.3506,112.4124,0,U,58990,999,4709,0,-.162E-5,0
METEOR-M2 4,2024-039A,2026-06-19T15:29:22.965216,14.22429736,.00074226,98.7011,129.9125,154.1905,205.9644,0,U,59051,999,11961,.20610968E-4,.2E-7,0
GOES 19,2024-119A,2026-06-19T09:05:52.728864,1.00309682,.00023066,0.0249,218.9773,265.9040,204.0106,0,U,60133,999,698,0,-.258E-5,0
MTG-S1,2025-143A,2026-06-18T09:28:59.334816,1.00323776,.0003993,0.6020,339.2639,77.2395,348.9838,0,U,64723,999,343,0,-.28E-6,0
METOP-SGA1,2025-172A,2026-06-16T03:40:47.624736,14.21509720,.0000902,98.6644,226.8998,93.8213,266.3067,0,U,65159,999,4364,.41999845E-4,.49E-6,0
FENGYUN 3H,2025-219A,2026-06-19T13:52:05.422656,14.19920716,.00015909,98.6767,111.3005,75.4716,284.6637,0,U,65815,999,3772,.35708214E-4,.32E-6,0
